STARLINK-2746_new
1 18676C 21044AQ  21326.17585213  .00002910  00000-0  19493-3 0  3263
2 18676  53.0551 312.9402 0001672  62.8327 351.1594 15.06399606    11
STARLINK-2746_old
1 28676C 21044AQ  21325.18994792  .00001382  00000-0  92589-4 0  3258
2 28676  53.0548 317.3661 0001576  63.6731  40.7863 15.06389097    17
